QIANFAN-57              
1 62787U 25016C   25240.61639473  .00000104  00000+0  14266-3 0  9992
2 62787  88.9812 114.1536 0002687  80.8999 279.2457 13.50961881 32873
QIANFAN-58              
1 62788U 25016D   25240.58761436  .00000102  00000+0  13898-3 0  9992
2 62788  88.9781 114.0212 0012368 295.5355  64.4517 13.50960985 32917
QIANFAN-59              
1 62789U 25016E   25240.59992445  .00000106  00000+0  14619-3 0  9996
2 62789  88.9804 114.0653 0013343 298.6558  61.3250 13.50965208 32919
QIANFAN-60              
1 62790U 25016F   25240.59154495  .00000103  00000+0  14072-3 0  9993
2 62790  88.9785 114.0658 0013753 296.0692  63.9043 13.50962455 32896
QIANFAN-61              
1 62791U 25016G   25240.60402084  .00000111  00000+0  15302-3 0  9992
2 62791  88.9853 114.1502 0013193 294.6792  65.2985 13.50968108 32919
QIANFAN-62              
1 62792U 25016H   25240.60804741  .00000110  00000+0  15177-3 0  9998
2 62792  88.9799 114.0756 0014575 294.6285  65.3348 13.50962114 32905
QIANFAN-63              
1 62793U 25016J   25240.54639425  .00000090  00000+0  12173-3 0  9997
2 62793  88.9806 114.0234 0014481 299.8820  60.0891 13.50959123 32938
QIANFAN-64              
1 62794U 25016K   25240.61215107  .00000114  00000+0  15825-3 0  9997
2 62794  88.9793 114.0110 0012190 293.4583  66.5286 13.50961759 32935
